[{"OBJECT_NAME":"SNAP-3 JIMI","OBJECT_ID":"2015-058M","EPOCH":"2026-03-04T18:26:13.493472","MEAN_MOTION":15.0104689,"ECCENTRICITY":0.01058186,"INCLINATION":64.7662,"RA_OF_ASC_NODE":189.8413,"ARG_OF_PERICENTER":98.575,"MEAN_ANOMALY":262.7374,"EPHEMERIS_TYPE":0,"CLASSIFICATION_TYPE":"U","NORAD_CAT_ID":40975,"ELEMENT_SET_NO":999,"REV_AT_EPOCH":9854,"BSTAR":0.00071138098,"MEAN_MOTION_DOT":0.00010116,"MEAN_MOTION_DDOT":0},{"OBJECT_NAME":"PROPCUBE 1 (FLORA)","OBJECT_ID":"2015-058N","EPOCH":"2026-03-04T22:52:05.705184","MEAN_MOTION":14.88591112,"ECCENTRICITY":0.01304227,"INCLINATION":64.773,"RA_OF_ASC_NODE":258.1332,"ARG_OF_PERICENTER":102.0514,"MEAN_ANOMALY":259.5248,"EPHEMERIS_TYPE":0,"CLASSIFICATION_TYPE":"U","NORAD_CAT_ID":40976,"ELEMENT_SET_NO":999,"REV_AT_EPOCH":10074,"BSTAR":0.00043792783,"MEAN_MOTION_DOT":4.624e-5,"MEAN_MOTION_DDOT":0},{"OBJECT_NAME":"SINOD-D 3","OBJECT_ID":"2015-058P","EPOCH":"2026-03-04T22:09:09.741888","MEAN_MOTION":14.93143556,"ECCENTRICITY":0.01188343,"INCLINATION":64.7712,"RA_OF_ASC_NODE":241.1914,"ARG_OF_PERICENTER":100.1086,"MEAN_ANOMALY":261.3458,"EPHEMERIS_TYPE":0,"CLASSIFICATION_TYPE":"U","NORAD_CAT_ID":40977,"ELEMENT_SET_NO":999,"REV_AT_EPOCH":9918,"BSTAR":0.0005938443,"MEAN_MOTION_DOT":6.968e-5,"MEAN_MOTION_DDOT":0},{"OBJECT_NAME":"HORYU-4","OBJECT_ID":"2016-012D","EPOCH":"2026-03-05T04:28:48.460800","MEAN_MOTION":15.61974786,"ECCENTRICITY":0.00022855,"INCLINATION":30.9914,"RA_OF_ASC_NODE":99.4875,"ARG_OF_PERICENTER":102.5424,"MEAN_ANOMALY":257.5484,"EPHEMERIS_TYPE":0,"CLASSIFICATION_TYPE":"U","NORAD_CAT_ID":41340,"ELEMENT_SET_NO":999,"REV_AT_EPOCH":55440,"BSTAR":0.0010077896,"MEAN_MOTION_DOT":0.00092418,"MEAN_MOTION_DDOT":0},{"OBJECT_NAME":"RAVAN","OBJECT_ID":"2016-067B","EPOCH":"2026-03-05T04:15:14.060448","MEAN_MOTION":15.4571729,"ECCENTRICITY":0.00067606,"INCLINATION":98.0049,"RA_OF_ASC_NODE":302.427,"ARG_OF_PERICENTER":21.3296,"MEAN_ANOMALY":338.8231,"EPHEMERIS_TYPE":0,"CLASSIFICATION_TYPE":"U","NORAD_CAT_ID":41849,"ELEMENT_SET_NO":999,"REV_AT_EPOCH":51158,"BSTAR":0.00093097734,"MEAN_MOTION_DOT":0.00045116,"MEAN_MOTION_DDOT":0},{"OBJECT_NAME":"CELTEE 1","OBJECT_ID":"2016-067C","EPOCH":"2026-03-05T03:15:30.107232","MEAN_MOTION":15.18519714,"ECCENTRICITY":7.314e-5,"INCLINATION":98.0819,"RA_OF_ASC_NODE":283.5973,"ARG_OF_PERICENTER":130.4495,"MEAN_ANOMALY":229.6801,"EPHEMERIS_TYPE":0,"CLASSIFICATION_TYPE":"U","NORAD_CAT_ID":41850,"ELEMENT_SET_NO":999,"REV_AT_EPOCH":51008,"BSTAR":0.00039762478,"MEAN_MOTION_DOT":8.133e-5,"MEAN_MOTION_DDOT":0},{"OBJECT_NAME":"OPTICUBE 04","OBJECT_ID":"2016-067D","EPOCH":"2026-03-05T03:13:03.292896","MEAN_MOTION":15.09151736,"ECCENTRICITY":0.00169815,"INCLINATION":98.0802,"RA_OF_ASC_NODE":270.9451,"ARG_OF_PERICENTER":108.3003,"MEAN_ANOMALY":252.0074,"EPHEMERIS_TYPE":0,"CLASSIFICATION_TYPE":"U","NORAD_CAT_ID":41851,"ELEMENT_SET_NO":999,"REV_AT_EPOCH":50947,"BSTAR":0.0002216342,"MEAN_MOTION_DOT":3.458e-5,"MEAN_MOTION_DDOT":0},{"OBJECT_NAME":"AEROCUBE 8D","OBJECT_ID":"2016-067E","EPOCH":"2026-03-05T03:04:47.433792","MEAN_MOTION":15.22773092,"ECCENTRICITY":0.00045134,"INCLINATION":98.0833,"RA_OF_ASC_NODE":286.4107,"ARG_OF_PERICENTER":122.871,"MEAN_ANOMALY":237.296,"EPHEMERIS_TYPE":0,"CLASSIFICATION_TYPE":"U","NORAD_CAT_ID":41852,"ELEMENT_SET_NO":999,"REV_AT_EPOCH":51022,"BSTAR":0.00045340364,"MEAN_MOTION_DOT":0.0001052,"MEAN_MOTION_DDOT":0},{"OBJECT_NAME":"AEROCUBE 8C","OBJECT_ID":"2016-067F","EPOCH":"2026-03-05T02:29:17.709216","MEAN_MOTION":15.22994425,"ECCENTRICITY":0.00066087,"INCLINATION":98.07,"RA_OF_ASC_NODE":283.7497,"ARG_OF_PERICENTER":66.4498,"MEAN_ANOMALY":293.7431,"EPHEMERIS_TYPE":0,"CLASSIFICATION_TYPE":"U","NORAD_CAT_ID":41853,"ELEMENT_SET_NO":999,"REV_AT_EPOCH":51021,"BSTAR":0.00046934747,"MEAN_MOTION_DOT":0.00010968,"MEAN_MOTION_DDOT":0},{"OBJECT_NAME":"CORVUS BC2","OBJECT_ID":"2017-042X","EPOCH":"2026-03-04T21:01:06.229056","MEAN_MOTION":15.05549034,"ECCENTRICITY":0.00142726,"INCLINATION":97.393,"RA_OF_ASC_NODE":229.3982,"ARG_OF_PERICENTER":108.4821,"MEAN_ANOMALY":251.7959,"EPHEMERIS_TYPE":0,"CLASSIFICATION_TYPE":"U","NORAD_CAT_ID":42846,"ELEMENT_SET_NO":999,"REV_AT_EPOCH":47136,"BSTAR":0.00044421809,"MEAN_MOTION_DOT":6.354e-5,"MEAN_MOTION_DDOT":0},{"OBJECT_NAME":"CORVUS BC1","OBJECT_ID":"2017-042Y","EPOCH":"2026-03-05T06:45:38.585376","MEAN_MOTION":15.05767106,"ECCENTRICITY":0.00132164,"INCLINATION":97.3961,"RA_OF_ASC_NODE":230.53,"ARG_OF_PERICENTER":85.381,"MEAN_ANOMALY":274.8926,"EPHEMERIS_TYPE":0,"CLASSIFICATION_TYPE":"U","NORAD_CAT_ID":42847,"ELEMENT_SET_NO":999,"REV_AT_EPOCH":47145,"BSTAR":0.00039056215,"MEAN_MOTION_DOT":5.61e-5,"MEAN_MOTION_DDOT":0},{"OBJECT_NAME":"MAKERSAT 0","OBJECT_ID":"2017-073D","EPOCH":"2026-03-05T04:23:01.430016","MEAN_MOTION":15.27547333,"ECCENTRICITY":0.01158364,"INCLINATION":97.4789,"RA_OF_ASC_NODE":306.147,"ARG_OF_PERICENTER":282.0511,"MEAN_ANOMALY":76.7766,"EPHEMERIS_TYPE":0,"CLASSIFICATION_TYPE":"U","NORAD_CAT_ID":43016,"ELEMENT_SET_NO":999,"REV_AT_EPOCH":45056,"BSTAR":0.00080215589,"MEAN_MOTION_DOT":0.00026363,"MEAN_MOTION_DDOT":0},{"OBJECT_NAME":"SIRION PATHFINDER-2","OBJECT_ID":"2018-099B","EPOCH":"2026-03-05T02:09:15.401376","MEAN_MOTION":15.13470611,"ECCENTRICITY":0.00075663,"INCLINATION":97.4391,"RA_OF_ASC_NODE":115.6242,"ARG_OF_PERICENTER":305.1422,"MEAN_ANOMALY":54.91,"EPHEMERIS_TYPE":0,"CLASSIFICATION_TYPE":"U","NORAD_CAT_ID":43759,"ELEMENT_SET_NO":999,"REV_AT_EPOCH":39687,"BSTAR":0.00044238055,"MEAN_MOTION_DOT":7.856e-5,"MEAN_MOTION_DDOT":0},{"OBJECT_NAME":"CORVUS BC4","OBJECT_ID":"2018-099K","EPOCH":"2026-03-05T03:47:13.715232","MEAN_MOTION":15.11554082,"ECCENTRICITY":0.00084857,"INCLINATION":97.4209,"RA_OF_ASC_NODE":110.1738,"ARG_OF_PERICENTER":11.7012,"MEAN_ANOMALY":348.4414,"EPHEMERIS_TYPE":0,"CLASSIFICATION_TYPE":"U","NORAD_CAT_ID":43767,"ELEMENT_SET_NO":999,"REV_AT_EPOCH":39668,"BSTAR":0.0003610004,"MEAN_MOTION_DOT":6.065e-5,"MEAN_MOTION_DDOT":0},{"OBJECT_NAME":"SPACEBEE-7","OBJECT_ID":"2018-099BL","EPOCH":"2026-03-05T04:26:13.589664","MEAN_MOTION":16.10994092,"ECCENTRICITY":0.00085483,"INCLINATION":97.4365,"RA_OF_ASC_NODE":150.8176,"ARG_OF_PERICENTER":273.9712,"MEAN_ANOMALY":86.0594,"EPHEMERIS_TYPE":0,"CLASSIFICATION_TYPE":"U","NORAD_CAT_ID":43816,"ELEMENT_SET_NO":999,"REV_AT_EPOCH":39849,"BSTAR":0.0019778227,"MEAN_MOTION_DOT":0.0187023,"MEAN_MOTION_DDOT":0.0029895569},{"OBJECT_NAME":"M2 PATHFINDER","OBJECT_ID":"2020-037E","EPOCH":"2026-03-05T02:08:19.160160","MEAN_MOTION":15.04137597,"ECCENTRICITY":0.0012356,"INCLINATION":97.8142,"RA_OF_ASC_NODE":254.161,"ARG_OF_PERICENTER":141.1221,"MEAN_ANOMALY":219.0896,"EPHEMERIS_TYPE":0,"CLASSIFICATION_TYPE":"U","NORAD_CAT_ID":45727,"ELEMENT_SET_NO":999,"REV_AT_EPOCH":30984,"BSTAR":0.00028072493,"MEAN_MOTION_DOT":3.835e-5,"MEAN_MOTION_DDOT":0}]
