SNAP-3 JIMI             
1 40975U 15058M   26063.76821173  .00010116  00000+0  71138-3 0  9997
2 40975  64.7662 189.8413 0105818  98.5750 262.7374 15.01046890 98540
PROPCUBE 1 (FLORA)      
1 40976U 15058N   26063.95284381  .00004624  00000+0  43793-3 0  9996
2 40976  64.7730 258.1332 0130422 102.0514 259.5248 14.88591112100741
SINOD-D 3               
1 40977U 15058P   26063.92302942  .00006968  00000+0  59384-3 0  9994
2 40977  64.7712 241.1914 0118834 100.1086 261.3458 14.93143556 99186
HORYU-4                 
1 41340U 16012D   26064.18667200  .00092418  00000+0  10078-2 0  9991
2 41340  30.9914  99.4875 0002285 102.5424 257.5484 15.61974786554404
RAVAN                   
1 41849U 16067B   26064.17724607  .00045116  00000+0  93098-3 0  9996
2 41849  98.0049 302.4270 0006760  21.3296 338.8231 15.45717290511587
CELTEE 1                
1 41850U 16067C   26064.13576513  .00008133  00000+0  39762-3 0  9991
2 41850  98.0819 283.5973 0000731 130.4495 229.6801 15.18519714510083
OPTICUBE 04             
1 41851U 16067D   26064.13406589  .00003458  00000+0  22163-3 0  9999
2 41851  98.0802 270.9451 0016981 108.3003 252.0074 15.09151736509479
AEROCUBE 8D             
1 41852U 16067E   26064.12832678  .00010520  00000+0  45340-3 0  9991
2 41852  98.0833 286.4107 0004513 122.8710 237.2960 15.22773092510222
AEROCUBE 8C             
1 41853U 16067F   26064.10367719  .00010968  00000+0  46935-3 0  9996
2 41853  98.0700 283.7497 0006608  66.4498 293.7431 15.22994425510215
CORVUS BC2              
1 42846U 17042X   26063.87576654  .00006354  00000+0  44422-3 0  9999
2 42846  97.3930 229.3982 0014272 108.4821 251.7959 15.05549034471367
CORVUS BC1              
1 42847U 17042Y   26064.28169659  .00005610  00000+0  39056-3 0  9990
2 42847  97.3961 230.5300 0013216  85.3810 274.8926 15.05767106471450
MAKERSAT 0              
1 43016U 17073D   26064.18265544  .00026363  00000+0  80216-3 0  9994
2 43016  97.4789 306.1470 0115836 282.0511  76.7766 15.27547333450563
SIRION PATHFINDER-2     
1 43759U 18099B   26064.08976159  .00007856  00000+0  44238-3 0  9997
2 43759  97.4391 115.6242 0007566 305.1422  54.9100 15.13470611396876
CORVUS BC4              
1 43767U 18099K   26064.15779763  .00006065  00000+0  36100-3 0  9996
2 43767  97.4209 110.1738 0008485  11.7012 348.4414 15.11554082396680
SPACEBEE-7              
1 43816U 18099BL  26064.18487951  .01870230  29896-2  19778-2 0  9991
2 43816  97.4365 150.8176 0008548 273.9712  86.0594 16.10994092398498
M2 PATHFINDER           
1 45727U 20037E   26064.08911065  .00003835  00000+0  28072-3 0  9995
2 45727  97.8142 254.1610 0012356 141.1221 219.0896 15.04137597309847
